NORAD_CAT_ID,OBJECT_NAME,OBJECT_TYPE,EPOCH,MEAN_MOTION,ECCENTRICITY,INCLINATION,RA_OF_ASC_NODE,ARG_OF_PERICENTER,MEAN_ANOMALY,BSTAR,MEAN_MOTION_DOT,MEAN_MOTION_DDOT,TLE_LINE0,TLE_LINE1,TLE_LINE2,SEMIMAJOR_AXIS,PERIOD,APOGEE,PERIGEE,DECAYED
52662.0,STARLINK-4044,PAYLOAD,2024-01-07 13:51:55,15.08844369,0.0001332,53.2181,110.0511,98.1175,261.9969,-8.3946e-05,-1.624e-05,0.0,0 STARLINK-4044,1 52662U 22053G   24007.57772711 -.00001624  00000-0 -83946-4 0  9992,2 52662  53.2181 110.0511 0001332  98.1175 261.9969 15.08844369 91462,6917.867,95.437,540.653,538.811,0.0
52662.0,STARLINK-4044,PAYLOAD,2024-01-07 17:02:41,15.08847577,0.0001913,53.2185,109.4541,134.2844,225.8306,-0.0001106,-2.048e-05,0.0,0 STARLINK-4044,1 52662U 22053G   24007.71020375 -.00002048  00000-0 -11060-3 0  9998,2 52662  53.2185 109.4541 0001913 134.2844 225.8306 15.08847577 91481,6917.857,95.437,541.046,538.399,0.0
52662.0,STARLINK-4044,PAYLOAD,2024-01-08 12:07:20,15.08832702,0.0001465,53.2183,105.8886,85.2389,274.877,0.00014319,1.991e-05,0.0,0 STARLINK-4044,1 52662U 22053G   24008.50509472  .00001991  00000-0  14319-3 0  9990,2 52662  53.2183 105.8886 0001465  85.2389 274.8770 15.08832702 91609,6917.903,95.438,540.781,538.754,0.0
52662.0,STARLINK-4044,PAYLOAD,2024-01-08 13:42:43,15.08835781,0.0001537,53.2187,105.5908,90.5241,269.5928,0.00017663,2.524e-05,0.0,0 STARLINK-4044,1 52662U 22053G   24008.57133270  .00002524  00000-0  17663-3 0  9994,2 52662  53.2187 105.5908 0001537  90.5241 269.5928 15.08835781 91618,6917.893,95.438,540.822,538.695,0.0
52662.0,STARLINK-4044,PAYLOAD,2024-01-09 13:33:30,15.08845263,0.0001664,53.2181,101.1293,73.0165,287.1009,0.00018,2.578e-05,0.0,0 STARLINK-4044,1 52662U 22053G   24009.56493140  .00002578  00000-0  18000-3 0  9994,2 52662  53.2181 101.1293 0001664  73.0165 287.1009 15.08845263 91761,6917.864,95.437,540.88,538.578,0.0
52662.0,STARLINK-4044,PAYLOAD,2024-01-09 15:08:52,15.08850501,0.0001586,53.2182,100.8316,87.4442,272.6732,0.00024226,3.571e-05,0.0,0 STARLINK-4044,1 52662U 22053G   24009.63116777  .00003571  00000-0  24226-3 0  9991,2 52662  53.2182 100.8316 0001586  87.4442 272.6732 15.08850501 91778,6917.848,95.437,540.81,538.616,0.0
52662.0,STARLINK-4044,PAYLOAD,2024-01-10 10:13:30,15.08841413,0.0001834,53.2178,97.2628,112.8834,247.2352,1.8858e-05,1.2e-07,0.0,0 STARLINK-4044,1 52662U 22053G   24010.42605143  .00000012  00000-0  18858-4 0  9992,2 52662  53.2178  97.2628 0001834 112.8834 247.2352 15.08841413 91893,6917.876,95.437,541.01,538.472,0.0
52662.0,STARLINK-4044,PAYLOAD,2024-01-11 11:39:40,15.08854041,0.0001639,53.2175,92.5097,83.1986,276.9192,0.0001186,1.601e-05,0.0,0 STARLINK-4044,1 52662U 22053G   24011.48588362  .00001601  00000-0  11860-3 0  9992,2 52662  53.2175  92.5097 0001639  83.1986 276.9192 15.08854041 92050,6917.837,95.437,540.836,538.569,0.0
52662.0,STARLINK-4044,PAYLOAD,2024-01-12 11:30:28,15.08839526,0.0001392,53.2166,88.0423,92.5892,267.5259,8.4881e-06,-1.53e-06,0.0,0 STARLINK-4044,1 52662U 22053G   24012.47949247 -.00000153  00000-0  84881-5 0  9992,2 52662  53.2166  88.0423 0001392  92.5892 267.5259 15.08839526 92207,6917.882,95.438,540.71,538.784,0.0
52662.0,STARLINK-4044,PAYLOAD,2024-01-13 11:21:15,15.08845346,0.0001637,53.2178,83.5845,99.6499,260.4678,5.4849e-05,5.85e-06,0.0,0 STARLINK-4044,1 52662U 22053G   24013.47309196  .00000585  00000-0  54849-4 0  9994,2 52662  53.2178  83.5845 0001637  99.6499 260.4678 15.08845346 92351,6917.864,95.437,540.862,538.597,0.0
52662.0,STARLINK-4044,PAYLOAD,2024-01-14 03:15:06,15.08838636,0.0001788,53.2185,80.6137,102.7878,257.3314,0.00023268,3.417e-05,0.0,0 STARLINK-4044,1 52662U 22053G   24014.13549663  .00003417  00000-0  23268-3 0  9990,2 52662  53.2185  80.6137 0001788 102.7878 257.3314 15.08838636 92452,6917.885,95.438,540.986,538.513,0.0
52662.0,STARLINK-4044,PAYLOAD,2024-01-14 11:12:02,15.08843446,0.0001787,53.2183,79.1261,104.4034,255.7156,0.00026246,3.892e-05,0.0,0 STARLINK-4044,1 52662U 22053G   24014.46669503  .00003892  00000-0  26246-3 0  9998,2 52662  53.2183  79.1261 0001787 104.4034 255.7156 15.08843446 92500,6917.87,95.437,540.971,538.499,0.0
52662.0,STARLINK-4044,PAYLOAD,2024-01-15 09:27:26,15.08847504,0.0001822,53.2184,74.9631,108.4117,251.7074,0.00014888,2.083e-05,0.0,0 STARLINK-4044,1 52662U 22053G   24015.39405234  .00002083  00000-0  14888-3 0  9990,2 52662  53.2184  74.9631 0001822 108.4117 251.7074 15.08847504 92640,6917.857,95.437,540.983,538.462,0.0
52662.0,STARLINK-4044,PAYLOAD,2024-01-16 02:56:40,15.08839022,0.0001843,53.2171,71.6874,113.3124,246.8063,-8.2965e-05,-1.608e-05,0.0,0 STARLINK-4044,1 52662U 22053G   24016.12269599 -.00001608  00000-0 -82965-4 0  9990,2 52662  53.2171  71.6874 0001843 113.3124 246.8063 15.08839022 92756,6917.883,95.438,541.023,538.473,0.0
52662.0,STARLINK-4044,PAYLOAD,2024-01-16 12:29:00,15.08835784,0.0001535,53.217,69.9027,90.1188,269.998,-8.5923e-05,-1.655e-05,0.0,0 STARLINK-4044,1 52662U 22053G   24016.52014008 -.00001655  00000-0 -85923-4 0  9996,2 52662  53.2170  69.9027 0001535  90.1188 269.9980 15.08835784 92817,6917.893,95.438,540.82,538.696,0.0
52662.0,STARLINK-4044,PAYLOAD,2024-01-17 10:44:24,15.08841881,0.0001664,53.218,65.7423,88.6308,271.4875,0.00011228,1.499e-05,0.0,0 STARLINK-4044,1 52662U 22053G   24017.44750163  .00001499  00000-0  11228-3 0  9997,2 52662  53.2180  65.7423 0001664  88.6308 271.4875 15.08841881 92952,6917.875,95.437,540.891,538.589,0.0
52662.0,STARLINK-4044,PAYLOAD,2024-01-18 12:10:34,15.08849627,0.0001744,53.2186,60.9816,77.9417,282.177,0.0002857,4.263e-05,0.0,0 STARLINK-4044,1 52662U 22053G   24018.50734144  .00004263  00000-0  28570-3 0  9996,2 52662  53.2186  60.9816 0001744  77.9417 282.1770 15.08849627 93110,6917.851,95.437,540.922,538.509,0.0
52662.0,STARLINK-4044,PAYLOAD,2024-01-19 02:29:02,15.08838121,0.0001485,53.2187,58.299,105.9113,254.2043,-7.4793e-05,-1.478e-05,0.0,0 STARLINK-4044,1 52662U 22053G   24019.10350585 -.00001478  00000-0 -74793-4 0  9992,2 52662  53.2187  58.2990 0001485 105.9113 254.2043 15.08838121 93201,6917.886,95.438,540.778,538.724,0.0
52662.0,STARLINK-4044,PAYLOAD,2024-01-19 08:50:35,15.08844015,0.0001998,53.2187,57.1185,95.1367,264.9854,6.0119e-05,6.69e-06,0.0,0 STARLINK-4044,1 52662U 22053G   24019.36846447  .00000669  00000-0  60119-4 0  9993,2 52662  53.2187  57.1185 0001998  95.1367 264.9854 15.08844015 93246,6917.868,95.437,541.115,538.351,0.0
52662.0,STARLINK-4044,PAYLOAD,2024-01-20 08:41:22,15.08843286,0.0001829,53.218,52.6595,100.7776,259.3422,2.045e-05,3.7e-07,0.0,0 STARLINK-4044,1 52662U 22053G   24020.36206428  .00000037  00000-0  20450-4 0  9997,2 52662  53.2180  52.6595 0001829 100.7776 259.3422 15.08843286 93398,6917.87,95.437,541.001,538.47,0.0
52662.0,STARLINK-4044,PAYLOAD,2024-01-21 02:10:37,15.08838786,0.0001896,53.2179,49.3883,104.6537,255.4666,7.0871e-05,8.4e-06,0.0,0 STARLINK-4044,1 52662U 22053G   24021.09070725  .00000840  00000-0  70871-4 0  9991,2 52662  53.2179  49.3883 0001896 104.6537 255.4666 15.08838786 93500,6917.884,95.438,541.061,538.437,0.0
52662.0,STARLINK-4044,PAYLOAD,2024-01-21 06:56:46,15.08840149,0.0001989,53.2191,48.4962,114.7886,245.3313,7.7399e-05,9.44e-06,0.0,0 STARLINK-4044,1 52662U 22053G   24021.28942630  .00000944  00000-0  77399-4 0  9992,2 52662  53.2191  48.4962 0001989 114.7886 245.3313 15.08840149 93530,6917.88,95.438,541.121,538.369,0.0
52662.0,STARLINK-4044,PAYLOAD,2024-01-21 11:42:55,15.08843739,0.0001847,53.2182,47.6024,111.4388,248.6801,8.5611e-05,1.075e-05,0.0,0 STARLINK-4044,1 52662U 22053G   24021.48814309  .00001075  00000-0  85611-4 0  9997,2 52662  53.2182  47.6024 0001847 111.4388 248.6801 15.08843739 93563,6917.869,95.437,541.012,538.456,0.0
52662.0,STARLINK-4044,PAYLOAD,2024-01-22 02:01:24,15.08834878,0.0001775,53.2179,44.9245,106.9156,253.2031,2.0891e-05,4.4e-07,0.0,0 STARLINK-4044,1 52662U 22053G   24022.08431146  .00000044  00000-0  20891-4 0  9992,2 52662  53.2179  44.9245 0001775 106.9156 253.2031 15.08834878 93657,6917.896,95.438,540.989,538.533,0.0
52662.0,STARLINK-4044,PAYLOAD,2024-01-22 06:47:33,15.08838253,0.0001764,53.218,44.0324,104.3095,255.8093,4.4959e-05,4.27e-06,0.0,0 STARLINK-4044,1 52662U 22053G   24022.28302961  .00000427  00000-0  44959-4 0  9992,2 52662  53.2180  44.0324 0001764 104.3095 255.8093 15.08838253 93680,6917.886,95.438,540.971,538.53,0.0
52662.0,STARLINK-4044,PAYLOAD,2024-01-22 08:22:56,15.08839046,0.000175,53.2181,43.7352,102.3591,257.7597,4.849e-05,4.84e-06,0.0,0 STARLINK-4044,1 52662U 22053G   24022.34926908  .00000484  00000-0  48490-4 0  9999,2 52662  53.2181  43.7352 0001750 102.3591 257.7597 15.08839046 93694,6917.883,95.438,540.959,538.538,0.0
52662.0,STARLINK-4044,PAYLOAD,2024-01-23 06:38:21,15.08836991,0.0001754,53.2188,39.5709,99.2255,260.8935,3.0909e-05,2.04e-06,0.0,0 STARLINK-4044,1 52662U 22053G   24023.27663365  .00000204  00000-0  30909-4 0  9993,2 52662  53.2188  39.5709 0001754  99.2255 260.8935 15.08836991 93838,6917.89,95.438,540.968,538.541,0.0
52662.0,STARLINK-4044,PAYLOAD,2024-01-23 08:13:44,15.08839091,0.0001966,53.2194,39.2727,103.2132,256.9079,4.0101e-05,3.5e-06,0.0,0 STARLINK-4044,1 52662U 22053G   24023.34287235  .00000350  00000-0  40101-4 0  9996,2 52662  53.2194  39.2727 0001966 103.2132 256.9079 15.08839091 93847,6917.883,95.438,541.108,538.388,0.0
52662.0,STARLINK-4044,PAYLOAD,2024-01-24 08:04:31,15.08839807,0.0001775,53.2197,34.8156,82.5151,277.6043,7.7721e-05,9.49e-06,0.0,0 STARLINK-4044,1 52662U 22053G   24024.33647441  .00000949  00000-0  77721-4 0  9997,2 52662  53.2197  34.8156 0001775  82.5151 277.6043 15.08839807 93997,6917.881,95.438,540.974,538.518,0.0
52662.0,STARLINK-4044,PAYLOAD,2024-01-25 07:55:17,15.0884949,0.0001964,53.2203,30.3546,69.6175,290.5028,0.00011838,1.597e-05,0.0,0 STARLINK-4044,1 52662U 22053G   24025.33006805  .00001597  00000-0  11838-3 0  9997,2 52662  53.2203  30.3546 0001964  69.6175 290.5028 15.08849490 94145,6917.851,95.437,541.075,538.358,0.0
